[ {"name": "STARLINK-2457", "line1": "1 48321U 21036AX  26097.06473900 -.00002503  00000+0 -72400-4 0  9991", "line2": "2 48321  53.1596 329.2109 0001022  87.8199 272.2919 15.30213038272382"}, {"name": "STARLINK-2515", "line1": "1 48323U 21036AZ  26096.92674522  .00003850  00000+0  14204-3 0  9991", "line2": "2 48323  53.1606 329.8467 0001059  74.5232 285.5885 15.30197528272362"}, {"name": "STARLINK-2495", "line1": "1 48325U 21036BB  26096.92042721  .00002349  00000+0  91403-4 0  9992", "line2": "2 48325  53.1623 329.8866 0001300  79.1542 280.9605 15.30198253272365"}, {"name": "STARLINK-2498", "line1": "1 48326U 21036BC  26097.05950513  .00034497  00000+0  11711-2 0  9996", "line2": "2 48326  53.1588 329.3610 0000846  91.4340 268.6758 15.30208843272386"}, {"name": "STARLINK-2502", "line1": "1 48327U 21036BD  26097.03856645  .00007212  00000+0  26196-3 0  9995", "line2": "2 48327  53.1566 329.2850 0001539  75.1501 284.9670 15.29362320272389"}, {"name": "STARLINK-2504", "line1": "1 48328U 21036BE  26097.03841524  .00010211  00000+0  35626-3 0  9997", "line2": "2 48328  53.1621 329.3216 0001601  85.8694 274.2490 15.30215105272371"}, {"name": "STARLINK-2510", "line1": "1 48329U 21036BF  26096.96974675  .00058953  00000+0  20093-2 0  9999", "line2": "2 48329  53.1588 329.6415 0001162  98.3842 261.7290 15.29835463272376"}, {"name": "STARLINK-2501", "line1": "1 48330U 21036BG  26097.02089749  .00000793  00000+0  39832-4 0  9990", "line2": "2 48330  53.1550 329.3004 0001386 108.0700 252.0451 15.29354839272384"}, {"name": "STARLINK-2514", "line1": "1 48331U 21036BH  26097.01698163 -.00000691  00000+0 -11594-4 0  9990", "line2": "2 48331  53.1554 329.3149 0001472  80.8872 279.2295 15.29355391272383"}, {"name": "STARLINK-2518", "line1": "1 48333U 21036BK  26097.25003472  .00015437  00000+0  53278-3 0  9997", "line2": "2 48333  53.1582 328.3511 0001656  88.0937  91.3581 15.30166334  5850"}, {"name": "STARLINK-2470", "line1": "1 48334U 21036BL  26097.01839713  .00001473  00000+0  61861-4 0  9990", "line2": "2 48334  53.1595 329.4311 0001307 108.8678 251.2465 15.30194402272380"}, {"name": "STARLINK-2613", "line1": "1 48353U 21038A   26097.05812699 -.00000864  00000+0 -17066-4 0  9994", "line2": "2 48353  53.1596 226.3525 0001338  97.6212 262.4941 15.30192921271428"}, {"name": "STARLINK-2674", "line1": "1 48354U 21038B   26096.80109057  .00007624  00000+0  26928-3 0  9999", "line2": "2 48354  53.1587 227.6239 0001043  97.2372 262.8748 15.30197165271380"}, {"name": "STARLINK-2635", "line1": "1 48355U 21038C   26097.05180009  .00007628  00000+0  26941-3 0  9993", "line2": "2 48355  53.1567 226.3912 0000608  57.8852 302.2208 15.30198002271420"}, {"name": "STARLINK-2637", "line1": "1 48356U 21038D   26096.78738475  .00007367  00000+0  26061-3 0  9992", "line2": "2 48356  53.1566 227.6265 0001027  97.8714 262.2404 15.30198365271382"}, {"name": "STARLINK-2636", "line1": "1 48357U 21038E   26096.38812668 -.00002703  00000+0 -79136-4 0  9999", "line2": "2 48357  53.1593 229.4699 0001102  91.0547 269.0580 15.30209439271327"}, {"name": "STARLINK-2624", "line1": "1 48358U 21038F   26096.78211998  .00001379  00000+0  58701-4 0  9994", "line2": "2 48358  53.1598 227.6738 0001242  92.2397 267.8746 15.30193786271370"}, {"name": "STARLINK-2628", "line1": "1 48359U 21038G   26096.58090646  .00002209  00000+0  86697-4 0  9996", "line2": "2 48359  53.1589 228.5878 0001158  85.3676 274.7457 15.30199198271341"}, {"name": "STARLINK-2622", "line1": "1 48360U 21038H   26096.64305637  .00001226  00000+0  53496-4 0  9993", "line2": "2 48360  53.1578 228.3056 0001080  99.6250 260.4873 15.30198122271358"}, {"name": "STARLINK-2591", "line1": "1 48361U 21038J   26096.76735262  .00008063  00000+0  28389-3 0  9996", "line2": "2 48361  53.1592 227.7007 0001120  79.8553 280.2574 15.30220814271379"}, {"name": "STARLINK-2578", "line1": "1 48362U 21038K   26097.05496961  .00009481  00000+0  33182-3 0  9992", "line2": "2 48362  53.1581 226.3885 0001264  94.6533 265.4612 15.30200427271421"}, {"name": "STARLINK-2611", "line1": "1 48364U 21038M   26097.05711083  .00008323  00000+0  29279-3 0  9995", "line2": "2 48364  53.1601 216.0437 0000996  66.4634 293.6471 15.30203676271576"}, {"name": "STARLINK-2608", "line1": "1 48365U 21038N   26097.04447090  .00012284  00000+0  42620-3 0  9995", "line2": "2 48365  53.1595 216.1762 0001258  80.2911 279.8231 15.30199557271577"}, {"name": "STARLINK-2643", "line1": "1 48367U 21038Q   26096.62460744  .00001540  00000+0  64114-4 0  9997", "line2": "2 48367  53.1604 215.6195 0001280  88.2211 271.8936 15.30194441271537"}, {"name": "STARLINK-2623", "line1": "1 48368U 21038R   26096.61990590  .00000421  00000+0  26353-4 0  9994", "line2": "2 48368  53.1594 218.0536 0001185  82.1457 277.9678 15.30188898271507"}, {"name": "STARLINK-2621", "line1": "1 48370U 21038T   26097.05394332  .00012064  00000+0  41883-3 0  9998", "line2": "2 48370  53.1610 216.0326 0001292  89.7801 270.3347 15.30194994271569"}, {"name": "STARLINK-2589", "line1": "1 48371U 21038U   26097.05077866  .00005108  00000+0  18450-3 0  9994", "line2": "2 48371  53.1609 216.0510 0001413  87.4402 272.6761 15.30192964271560"}, {"name": "STARLINK-2609", "line1": "1 48373U 21038W   26096.61829807  .00005628  00000+0  20200-3 0  9990", "line2": "2 48373  53.1572 215.7685 0001043  91.7968 268.3153 15.30199045271535"}, {"name": "STARLINK-2604", "line1": "1 48374U 21038X   26097.03917571  .00001155  00000+0  51114-4 0  9994", "line2": "2 48374  53.1612 216.1171 0001142  88.8882 271.2249 15.30196993271569"}, {"name": "STARLINK-2603", "line1": "1 48375U 21038Y   26097.03708691  .00001371  00000+0  58422-4 0  9995", "line2": "2 48375  53.1621 216.1239 0001336  97.6315 262.4838 15.30186474271568"}, {"name": "STARLINK-2610", "line1": "1 48376U 21038Z   26096.77267147  .00000767  00000+0  38034-4 0  9997", "line2": "2 48376  53.1590 217.3557 0001126  84.7801 275.3329 15.30184976271523"}, {"name": "STARLINK-2499", "line1": "1 48377U 21038AA  26097.02760058  .00003085  00000+0  11627-3 0  9990", "line2": "2 48377  53.1602 216.1741 0001264  90.7694 269.3452 15.30191736271566"}, {"name": "STARLINK-2526", "line1": "1 48378U 21038AB  26097.03077013  .00001303  00000+0  56117-4 0  9999", "line2": "2 48378  53.1589 216.2003 0001370 101.2479 258.8676 15.30196990271568"}, {"name": "STARLINK-2612", "line1": "1 48379U 21038AC  26096.55617907  .00000539  00000+0  30346-4 0  9994", "line2": "2 48379  53.1590 216.3085 0001961 101.6832 258.4389 15.30194705271520"}, {"name": "STARLINK-2614", "line1": "1 48380U 21038AD  26096.62779259 -.00000453  00000+0 -31595-5 0  9998", "line2": "2 48380  53.1594 215.8208 0001477  93.8425 266.2745 15.30189070271532"}, {"name": "STARLINK-2630", "line1": "1 48381U 21038AE  26096.56091528 -.00002705  00000+0 -79266-4 0  9996", "line2": "2 48381  53.1607 218.3276 0001653  98.8912 261.2276 15.30189964271494"}, {"name": "STARLINK-2585", "line1": "1 48382U 21038AF  26096.62306774  .00004618  00000+0  16794-3 0  9995", "line2": "2 48382  53.1583 218.0415 0001056  91.3402 268.7720 15.30199020271501"}, {"name": "STARLINK-2598", "line1": "1 48385U 21038AJ  26097.02281659  .00002097  00000+0  82924-4 0  9995", "line2": "2 48385  53.1585 213.7585 0001405  92.8648 267.2513 15.30199119272821"}, {"name": "STARLINK-2606", "line1": "1 48386U 21038AK  26096.61409511  .00007372  00000+0  26083-3 0  9993", "line2": "2 48386  53.1590 215.8530 0001188  83.9968 276.1168 15.30191966271528"}, {"name": "STARLINK-2594", "line1": "1 48388U 21038AM  26096.61616162  .00002272  00000+0  88833-4 0  9993", "line2": "2 48388  53.1592 215.6002 0001015  76.8812 283.2302 15.30187312271532"}, {"name": "STARLINK-2586", "line1": "1 48390U 21038AP  26097.27193781  .00001073  00000+0  48358-4 0  9992", "line2": "2 48390  53.1612 199.8907 0001139  89.2063 270.9068 15.30199948273035"}, {"name": "STARLINK-2607", "line1": "1 48391U 21038AQ  26096.57565289  .00003313  00000+0  12396-3 0  9992", "line2": "2 48391  53.1602 203.4200 0001205  95.4185 264.6953 15.30194177272920"}, {"name": "STARLINK-2605", "line1": "1 48392U 21038AR  26097.25190401  .00003157  00000+0  11866-3 0  9996", "line2": "2 48392  53.1554 199.8640 0001371  93.3516 266.7642 15.30206112273036"}, {"name": "STARLINK-2574", "line1": "1 48395U 21038AU  26097.27036228 -.00021356  00000+0 -70880-3 0  9991", "line2": "2 48395  53.1615 202.1791 0001714  67.4374 292.6808 15.30297229273005"}, {"name": "STARLINK-2575", "line1": "1 48396U 21038AV  26096.98116712  .00000240  00000+0  20232-4 0  9990", "line2": "2 48396  53.1588 201.1285 0001445  90.6432 269.4735 15.30193945272994"}, {"name": "STARLINK-2590", "line1": "1 48397U 21038AW  26096.98749300  .00024028  00000+0  81998-3 0  9991", "line2": "2 48397  53.1576 201.2005 0000789 109.8908 250.2178 15.30230233272995"}, {"name": "STARLINK-2588", "line1": "1 48398U 21038AX  26097.02887101  .00049198  00000+0  24754-2 0  9991", "line2": "2 48398  53.0706 209.8565 0003122 214.4494 145.6298 15.16760796272864"}, {"name": "STARLINK-2587", "line1": "1 48399U 21038AY  26096.58401820  .00001722  00000+0  70266-4 0  9994", "line2": "2 48399  53.1576 203.0315 0001245 101.7165 258.3975 15.30197050272921"}, {"name": "STARLINK-2576", "line1": "1 48400U 21038AZ  26096.71255637  .00005566  00000+0  19989-3 0  9999", "line2": "2 48400  53.1570 202.4498 0001211  92.0981 268.0158 15.30201171271733"}, {"name": "STARLINK-2571", "line1": "1 48401U 21038BA  26096.70309887  .00002112  00000+0  83408-4 0  9998", "line2": "2 48401  53.1597 202.7276 0001032  86.8498 273.2621 15.30197481271725"}, {"name": "STARLINK-2593", "line1": "1 48404U 21038BD  26097.23190654  .00011217  00000+0  39017-3 0  9992", "line2": "2 48404  53.1588 200.1149 0001338  98.8201 261.2952 15.30207401271811"}, {"name": "STARLINK-2570", "line1": "1 48405U 21038BE  26096.98438116  .00000545  00000+0  30550-4 0  9998", "line2": "2 48405  53.1582 201.4400 0001511 100.2090 259.9082 15.30183453271769"}]